[{"OBJECT_NAME":"STARLINK-30351","OBJECT_ID":"2023-131G","EPOCH":"2026-03-09T22:00:01.999584","MEAN_MOTION":15.13769013,"ECCENTRICITY":0.00010896,"INCLINATION":42.9997,"RA_OF_ASC_NODE":170.4064,"ARG_OF_PERICENTER":262.6295,"MEAN_ANOMALY":331.656,"EPHEMERIS_TYPE":0,"CLASSIFICATION_TYPE":"U","NORAD_CAT_ID":57738,"ELEMENT_SET_NO":999,"REV_AT_EPOCH":578,"BSTAR":0.05938113,"MEAN_MOTION_DOT":0.01189701,"MEAN_MOTION_DDOT":0},{"OBJECT_NAME":"KONDOR-FKA NO. 2","OBJECT_ID":"2024-223A","EPOCH":"2026-03-09T11:47:52.628640","MEAN_MOTION":15.1977694,"ECCENTRICITY":0.00018388,"INCLINATION":97.4353,"RA_OF_ASC_NODE":273.3867,"ARG_OF_PERICENTER":85.6363,"MEAN_ANOMALY":274.5082,"EPHEMERIS_TYPE":0,"CLASSIFICATION_TYPE":"U","NORAD_CAT_ID":62138,"ELEMENT_SET_NO":999,"REV_AT_EPOCH":7056,"BSTAR":0.00026619271,"MEAN_MOTION_DOT":5.629e-5,"MEAN_MOTION_DDOT":0}]
